[{"OBJECT_NAME":"STARLINK-2555","OBJECT_ID":"2021-036R","EPOCH":"2026-03-09T07:42:55.637856","MEAN_MOTION":15.30217775,"ECCENTRICITY":0.0001444,"INCLINATION":53.1596,"RA_OF_ASC_NODE":79.5263,"ARG_OF_PERICENTER":93.9997,"MEAN_ANOMALY":266.1168,"EPHEMERIS_TYPE":0,"CLASSIFICATION_TYPE":"U","NORAD_CAT_ID":48291,"ELEMENT_SET_NO":999,"REV_AT_EPOCH":26831,"BSTAR":0.00027378708,"MEAN_MOTION_DOT":7.762e-5,"MEAN_MOTION_DDOT":0},{"OBJECT_NAME":"CONTINUUM-1","OBJECT_ID":"2023-001AN","EPOCH":"2026-03-09T23:17:35.458656","MEAN_MOTION":15.27981258,"ECCENTRICITY":0.00109493,"INCLINATION":97.3456,"RA_OF_ASC_NODE":133.3964,"ARG_OF_PERICENTER":60.1976,"MEAN_ANOMALY":300.0351,"EPHEMERIS_TYPE":0,"CLASSIFICATION_TYPE":"U","NORAD_CAT_ID":55045,"ELEMENT_SET_NO":999,"REV_AT_EPOCH":17709,"BSTAR":0.00052859897,"MEAN_MOTION_DOT":0.00014395,"MEAN_MOTION_DDOT":0}]
